NORAD_CAT_ID,OBJECT_NAME,OBJECT_TYPE,EPOCH,MEAN_MOTION,ECCENTRICITY,INCLINATION,RA_OF_ASC_NODE,ARG_OF_PERICENTER,MEAN_ANOMALY,BSTAR,MEAN_MOTION_DOT,MEAN_MOTION_DDOT,TLE_LINE0,TLE_LINE1,TLE_LINE2,SEMIMAJOR_AXIS,PERIOD,APOGEE,PERIGEE,DECAYED
53528.0,STARLINK-4503,PAYLOAD,2024-02-05 21:25:24,15.08841719,0.0001367,53.2165,258.4483,101.5589,258.5557,4.8568e-05,4.85e-06,0.0,0 STARLINK-4503,1 53528U 22101B   24036.89263917  .00000485  00000-0  48568-4 0  9991,2 53528  53.2165 258.4483 0001367 101.5589 258.5557 15.08841719 81007,6917.875,95.437,540.686,538.794,0.0
53528.0,STARLINK-4503,PAYLOAD,2024-02-06 00:36:10,15.08841186,0.0001429,53.2167,257.8545,105.5155,254.5995,4.2766e-05,3.93e-06,0.0,0 STARLINK-4503,1 53528U 22101B   24037.02511952  .00000393  00000-0  42766-4 0  9994,2 53528  53.2167 257.8545 0001429 105.5155 254.5995 15.08841186 81025,6917.877,95.437,540.73,538.753,0.0
53528.0,STARLINK-4503,PAYLOAD,2024-02-06 21:16:11,15.08840976,0.0001383,53.2164,253.9885,100.0144,260.1005,4.2701e-05,3.92e-06,0.0,0 STARLINK-4503,1 53528U 22101B   24037.88624003  .00000392  00000-0  42701-4 0  9998,2 53528  53.2164 253.9885 0001383 100.0144 260.1005 15.08840976 81158,6917.877,95.437,540.699,538.786,0.0
53528.0,STARLINK-4503,PAYLOAD,2024-02-07 14:45:26,15.08837051,0.0001423,53.2166,250.7177,93.9566,266.1589,8.5748e-06,-1.51e-06,0.0,0 STARLINK-4503,1 53528U 22101B   24038.61488474 -.00000151  00000-0  85748-5 0  9993,2 53528  53.2166 250.7177 0001423  93.9566 266.1589 15.08837051 81267,6917.889,95.438,540.739,538.77,0.0
53528.0,STARLINK-4503,PAYLOAD,2024-02-07 19:31:35,15.08837554,0.0001406,53.2163,249.8256,99.5832,260.5319,1.1675e-05,-1.02e-06,0.0,0 STARLINK-4503,1 53528U 22101B   24038.81360428 -.00000102  00000-0  11675-4 0  9996,2 53528  53.2163 249.8256 0001406  99.5832 260.5319 15.08837554 81290,6917.888,95.438,540.726,538.78,0.0
53528.0,STARLINK-4503,PAYLOAD,2024-02-07 21:06:58,15.08840361,0.0001405,53.2163,249.5332,110.9519,249.1624,-3.0322e-06,-3.36e-06,0.0,0 STARLINK-4503,1 53528U 22101B   24038.87984293 -.00000336  00000-0 -30322-5 0  9995,2 53528  53.2163 249.5332 0001405 110.9519 249.1624 15.08840361 81305,6917.879,95.438,540.716,538.772,0.0
53528.0,STARLINK-4503,PAYLOAD,2024-02-08 06:39:17,15.08838455,0.0001226,53.2155,247.7461,83.8787,276.2345,-7.2687e-06,-4.04e-06,0.0,0 STARLINK-4503,1 53528U 22101B   24039.27728514 -.00000404  00000-0 -72687-5 0  9998,2 53528  53.2155 247.7461 0001226  83.8787 276.2345 15.08838455 81363,6917.885,95.438,540.598,538.902,0.0
53528.0,STARLINK-4503,PAYLOAD,2024-02-08 19:22:23,15.08834715,0.0001299,53.2162,245.3681,91.7833,268.3308,-7.6347e-05,-1.503e-05,0.0,0 STARLINK-4503,1 53528U 22101B   24039.80721274 -.00001503  00000-0 -76347-4 0  9990,2 53528  53.2162 245.3681 0001299  91.7833 268.3308 15.08834715 81444,6917.897,95.438,540.66,538.863,0.0
53528.0,STARLINK-4503,PAYLOAD,2024-02-08 20:57:46,15.08835198,0.0001352,53.2165,245.0707,100.2552,259.8592,-4.9219e-05,-1.071e-05,0.0,0 STARLINK-4503,1 53528U 22101B   24039.87345143 -.00001071  00000-0 -49219-4 0  9992,2 53528  53.2165 245.0707 0001352 100.2552 259.8592 15.08835198 81454,6917.895,95.438,540.695,538.825,0.0
53528.0,STARLINK-4503,PAYLOAD,2024-02-09 12:51:37,15.08833861,0.0001312,53.2162,242.0969,89.2583,270.8559,3.3679e-05,2.48e-06,0.0,0 STARLINK-4503,1 53528U 22101B   24040.53585236  .00000248  00000-0  33679-4 0  9992,2 53528  53.2162 242.0969 0001312  89.2583 270.8559 15.08833861 81556,6917.899,95.438,540.672,538.857,0.0
53528.0,STARLINK-4503,PAYLOAD,2024-02-09 20:48:33,15.08838133,0.0001322,53.2162,240.6101,89.8957,270.2186,4.9123e-05,4.94e-06,0.0,0 STARLINK-4503,1 53528U 22101B   24040.86704991  .00000494  00000-0  49123-4 0  9993,2 53528  53.2162 240.6101 0001322  89.8957 270.2186 15.08838133 81603,6917.886,95.438,540.666,538.837,0.0
53528.0,STARLINK-4503,PAYLOAD,2024-02-10 22:14:42,15.08843924,0.0001284,53.2158,235.852,85.9319,274.182,0.00011757,1.584e-05,0.0,0 STARLINK-4503,1 53528U 22101B   24041.92688627  .00001584  00000-0  11757-3 0  9990,2 53528  53.2158 235.8520 0001284  85.9319 274.1820 15.08843924 81764,6917.868,95.437,540.622,538.845,0.0
53528.0,STARLINK-4503,PAYLOAD,2024-02-11 12:33:11,15.08843395,0.000132,53.2157,233.176,84.6022,275.5121,9.5345e-05,1.23e-05,0.0,0 STARLINK-4503,1 53528U 22101B   24042.52304610  .00001230  00000-0  95345-4 0  9998,2 53528  53.2157 233.1760 0001320  84.6022 275.5121 15.08843395 81859,6917.87,95.437,540.648,538.822,0.0
53528.0,STARLINK-4503,PAYLOAD,2024-02-11 18:54:43,15.08848207,0.0001341,53.2158,231.987,82.6509,277.4636,9.2128e-05,1.179e-05,0.0,0 STARLINK-4503,1 53528U 22101B   24042.78800256  .00001179  00000-0  92128-4 0  9991,2 53528  53.2158 231.9870 0001341  82.6509 277.4636 15.08848207 81892,6917.855,95.437,540.648,538.793,0.0
53528.0,STARLINK-4503,PAYLOAD,2024-02-12 18:45:30,15.08844704,0.0001339,53.2153,227.528,79.5189,280.5953,-4.7307e-06,-3.63e-06,0.0,0 STARLINK-4503,1 53528U 22101B   24043.78160557 -.00000363  00000-0 -47307-5 0  9991,2 53528  53.2153 227.5280 0001339  79.5189 280.5953 15.08844704 82042,6917.866,95.437,540.657,538.805,0.0
53528.0,STARLINK-4503,PAYLOAD,2024-02-12 21:56:16,15.08845698,0.0001299,53.215,226.932,82.2823,277.8317,5.7203e-06,-1.97e-06,0.0,0 STARLINK-4503,1 53528U 22101B   24043.91408326 -.00000197  00000-0  57203-5 0  9995,2 53528  53.2150 226.9320 0001299  82.2823 277.8317 15.08845698 82066,6917.863,95.437,540.627,538.829,0.0
53528.0,STARLINK-4503,PAYLOAD,2024-02-13 12:14:45,15.088507,0.000136,53.2158,224.2513,96.4377,263.677,-0.00025334,-4.319e-05,0.0,0 STARLINK-4503,1 53528U 22101B   24044.51025067 -.00004319  00000-0 -25334-3 0  9998,2 53528  53.2158 224.2513 0001360  96.4377 263.6770 15.08850700 82155,6917.848,95.437,540.654,538.772,0.0
53528.0,STARLINK-4503,PAYLOAD,2024-02-13 18:36:19,15.08778579,0.0001606,53.2155,223.0635,101.7876,258.3297,0.00075458,0.00011721,0.0,0 STARLINK-4503,1 53528U 22101B   24044.77522299  .00011721  00000-0  75458-3 0  9990,2 53528  53.2155 223.0635 0001606 101.7876 258.3297 15.08778579 82193,6918.068,95.441,541.044,538.822,0.0
53528.0,STARLINK-4503,PAYLOAD,2024-02-14 12:05:32,15.08836528,0.0001362,53.2152,219.7916,93.6705,266.4443,4.5309e-05,4.33e-06,0.0,0 STARLINK-4503,1 53528U 22101B   24045.50384897  .00000433  00000-0  45309-4 0  9993,2 53528  53.2152 219.7916 0001362  93.6705 266.4443 15.08836528 82308,6917.891,95.438,540.698,538.814,0.0
53528.0,STARLINK-4503,PAYLOAD,2024-02-14 18:27:04,15.08845908,0.0001275,53.2152,218.605,95.9632,264.1505,6.0133e-05,6.69e-06,0.0,0 STARLINK-4503,1 53528U 22101B   24045.76880343  .00000669  00000-0  60133-4 0  9991,2 53528  53.2152 218.6050 0001275  95.9632 264.1505 15.08845908 82342,6917.862,95.437,540.609,538.845,0.0
53528.0,STARLINK-4503,PAYLOAD,2024-02-15 03:59:23,15.08838892,0.0001272,53.2154,216.8224,103.1897,256.9237,2.4302e-06,-2.49e-06,0.0,0 STARLINK-4503,1 53528U 22101B   24046.16624951 -.00000249  00000-0  24302-5 0  9991,2 53528  53.2154 216.8224 0001272 103.1897 256.9237 15.08838892 82401,6917.884,95.438,540.629,538.869,0.0
53528.0,STARLINK-4503,PAYLOAD,2024-02-15 10:20:56,15.08831621,0.000137,53.2157,215.633,96.964,263.1508,7.4341e-05,8.95e-06,0.0,0 STARLINK-4503,1 53528U 22101B   24046.43121368  .00000895  00000-0  74341-4 0  9998,2 53528  53.2157 215.6330 0001370  96.9640 263.1508 15.08831621 82441,6917.906,95.438,540.719,538.823,0.0
53528.0,STARLINK-4503,PAYLOAD,2024-02-15 18:17:52,15.0883281,0.000135,53.2159,214.146,97.2331,262.8814,4.9286e-05,4.96e-06,0.0,0 STARLINK-4503,1 53528U 22101B   24046.76241564  .00000496  00000-0  49286-4 0  9992,2 53528  53.2159 214.1460 0001350  97.2331 262.8814 15.08832810 82492,6917.902,95.438,540.701,538.833,0.0
53528.0,STARLINK-4503,PAYLOAD,2024-02-15 21:28:38,15.08836416,0.0001382,53.2149,213.5499,93.4739,266.6411,8.3065e-05,1.034e-05,0.0,0 STARLINK-4503,1 53528U 22101B   24046.89489284  .00001034  00000-0  83065-4 0  9991,2 53528  53.2149 213.5499 0001382  93.4739 266.6411 15.08836416 82515,6917.891,95.438,540.712,538.8,0.0
53528.0,STARLINK-4503,PAYLOAD,2024-02-16 14:57:53,15.08839069,0.0001375,53.2166,210.2788,92.8955,267.2194,7.7662e-06,-1.64e-06,0.0,0 STARLINK-4503,1 53528U 22101B   24047.62353421 -.00000164  00000-0  77662-5 0  9997,2 53528  53.2166 210.2788 0001375  92.8955 267.2194 15.08839069 82628,6917.883,95.438,540.699,538.797,0.0
53528.0,STARLINK-4503,PAYLOAD,2024-02-16 19:44:02,15.0884278,0.0001419,53.217,209.3868,92.8912,267.2243,4.542e-05,4.35e-06,0.0,0 STARLINK-4503,1 53528U 22101B   24047.82225081  .00000435  00000-0  45420-4 0  9995,2 53528  53.2170 209.3868 0001419  92.8912 267.2243 15.08842780 82655,6917.872,95.437,540.719,538.755,0.0
53528.0,STARLINK-4503,PAYLOAD,2024-02-16 21:19:25,15.08845862,0.0001443,53.2167,209.0882,92.0451,268.0706,4.9882e-05,5.06e-06,0.0,0 STARLINK-4503,1 53528U 22101B   24047.88848840  .00000506  00000-0  49882-4 0  9990,2 53528  53.2167 209.0882 0001443  92.0451 268.0706 15.08845862 82669,6917.862,95.437,540.726,538.729,0.0
53528.0,STARLINK-4503,PAYLOAD,2024-02-17 03:40:58,15.08838013,0.0001253,53.2166,207.8962,81.3415,278.7719,-8.574e-06,-4.24e-06,0.0,0 STARLINK-4503,1 53528U 22101B   24048.15345487 -.00000424  00000-0 -85740-5 0  9995,2 53528  53.2166 207.8962 0001253  81.3415 278.7719 15.08838013 82700,6917.886,95.438,540.618,538.885,0.0
53528.0,STARLINK-4503,PAYLOAD,2024-02-17 14:48:40,15.08837116,0.0001851,53.2172,205.8149,89.139,270.9814,3.919e-05,3.36e-06,0.0,0 STARLINK-4503,1 53528U 22101B   24048.61713685  .00000336  00000-0  39190-4 0  9992,2 53528  53.2172 205.8149 0001851  89.1390 270.9814 15.08837116 82774,6917.889,95.438,541.035,538.474,0.0
53528.0,STARLINK-4503,PAYLOAD,2024-02-17 19:34:49,15.08841931,0.000151,53.2173,204.9224,100.5436,259.5727,3.1806e-05,2.18e-06,0.0,0 STARLINK-4503,1 53528U 22101B   24048.81585303  .00000218  00000-0  31806-4 0  9993,2 53528  53.2173 204.9224 0001510 100.5436 259.5727 15.08841931 82800,6917.874,95.437,540.784,538.695,0.0
